NORAD_CAT_ID,OBJECT_NAME,OBJECT_TYPE,EPOCH,MEAN_MOTION,ECCENTRICITY,INCLINATION,RA_OF_ASC_NODE,ARG_OF_PERICENTER,MEAN_ANOMALY,BSTAR,MEAN_MOTION_DOT,MEAN_MOTION_DDOT,TLE_LINE0,TLE_LINE1,TLE_LINE2,SEMIMAJOR_AXIS,PERIOD,APOGEE,PERIGEE,DECAYED
55271.0,STARLINK-5306,PAYLOAD,2024-06-04 11:02:21,14.9833833,0.0003253,69.9993,226.3726,269.5174,90.5613,0.00012983,1.457e-05,0.0,0 STARLINK-5306,1 55271U 23010C   24156.45997440  .00001457  00000-0  12983-3 0  9999,2 55271  69.9993 226.3726 0003253 269.5174  90.5613 14.98338330 76438,6950.167,96.106,574.293,569.771,0.0
55271.0,STARLINK-5306,PAYLOAD,2024-06-04 22:15:17,14.98341405,0.0003905,69.9975,225.1923,269.5615,90.5097,9.5053e-05,1.042e-05,0.0,0 STARLINK-5306,1 55271U 23010C   24156.92729045  .00001042  00000-0  95053-4 0  9995,2 55271  69.9975 225.1923 0003905 269.5615  90.5097 14.98341405 76509,6950.158,96.106,574.737,569.309,0.0
55271.0,STARLINK-5306,PAYLOAD,2024-06-05 04:39:50,14.98328469,0.0003399,69.9985,224.5194,268.7029,91.3741,9.0672e-05,9.89e-06,0.0,0 STARLINK-5306,1 55271U 23010C   24157.19433885  .00000989  00000-0  90672-4 0  9990,2 55271  69.9985 224.5194 0003399 268.7029  91.3741 14.98328469 76230,6950.198,96.107,574.425,569.7,0.0
55271.0,STARLINK-5306,PAYLOAD,2024-06-05 11:04:23,14.98331098,0.0003218,69.9994,223.8476,270.6153,89.4637,5.21e-06,-3.1e-07,0.0,0 STARLINK-5306,1 55271U 23010C   24157.46137968 -.00000031  00000-0  52100-5 0  9997,2 55271  69.9994 223.8476 0003218 270.6153  89.4637 14.98331098 76587,6950.189,96.107,574.291,569.818,0.0
55271.0,STARLINK-5306,PAYLOAD,2024-06-05 22:17:19,14.98330229,0.0003346,69.999,222.6692,270.6496,89.428,8.091e-07,-8.3e-07,0.0,0 STARLINK-5306,1 55271U 23010C   24157.92869986 -.00000083  00000-0  80910-6 0  9998,2 55271  69.9990 222.6692 0003346 270.6496  89.4280 14.98330229 76659,6950.192,96.107,574.383,569.732,0.0
55271.0,STARLINK-5306,PAYLOAD,2024-06-06 04:41:52,14.9832828,0.0003327,69.999,221.996,270.4534,89.6244,3.1068e-06,-5.6e-07,0.0,0 STARLINK-5306,1 55271U 23010C   24158.19574140 -.00000056  00000-0  31068-5 0  9992,2 55271  69.9990 221.9960 0003327 270.4534  89.6244 14.98328280 76385,6950.198,96.107,574.376,569.751,0.0
55271.0,STARLINK-5306,PAYLOAD,2024-06-06 11:06:24,14.98333491,0.0003309,69.9991,221.3228,270.2286,89.8494,5.2953e-06,-3e-07,0.0,0 STARLINK-5306,1 55271U 23010C   24158.46277803 -.00000030  00000-0  52953-5 0  9996,2 55271  69.9991 221.3228 0003309 270.2286  89.8494 14.98333491 76737,6950.182,96.107,574.347,569.747,0.0
55271.0,STARLINK-5306,PAYLOAD,2024-06-07 09:32:17,14.9832884,0.0003303,69.9992,218.9663,272.2809,87.7972,8.9355e-05,9.73e-06,0.0,0 STARLINK-5306,1 55271U 23010C   24159.39741925  .00000973  00000-0  89355-4 0  9990,2 55271  69.9992 218.9663 0003303 272.2809  87.7972 14.98328840 76875,6950.196,96.107,574.357,569.766,0.0
55271.0,STARLINK-5306,PAYLOAD,2024-06-07 20:45:12,14.98347434,0.0003431,69.9992,217.7881,273.6944,86.3823,-0.00013981,-1.762e-05,0.0,0 STARLINK-5306,1 55271U 23010C   24159.86473074 -.00001762  00000-0 -13981-3 0  9999,2 55271  69.9992 217.7881 0003431 273.6944  86.3823 14.98347434 76635,6950.139,96.106,574.389,569.619,0.0
55271.0,STARLINK-5306,PAYLOAD,2024-06-08 04:45:53,14.98334566,0.0003266,69.9991,216.9466,272.0228,88.0557,0.00012493,1.398e-05,0.0,0 STARLINK-5306,1 55271U 23010C   24160.19853467  .00001398  00000-0  12493-3 0  9995,2 55271  69.9991 216.9466 0003266 272.0228  88.0557 14.98334566 76688,6950.179,96.107,574.314,569.774,0.0
55271.0,STARLINK-5306,PAYLOAD,2024-06-08 11:10:25,14.98345537,0.000297,69.9991,216.2735,268.9652,91.1166,-3.9564e-05,-5.65e-06,0.0,0 STARLINK-5306,1 55271U 23010C   24160.46557063 -.00000565  00000-0 -39564-4 0  9994,2 55271  69.9991 216.2735 0002970 268.9652  91.1166 14.98345537 77037,6950.145,96.106,574.074,569.946,0.0
55271.0,STARLINK-5306,PAYLOAD,2024-06-08 20:47:13,14.98338373,0.0003429,69.9988,215.2613,275.0346,85.0422,7.4536e-05,7.97e-06,0.0,0 STARLINK-5306,1 55271U 23010C   24160.86613061  .00000797  00000-0  74536-4 0  9992,2 55271  69.9988 215.2613 0003429 275.0346  85.0422 14.98338373 77099,6950.167,96.106,574.415,569.649,0.0
55271.0,STARLINK-5306,PAYLOAD,2024-06-09 04:47:54,14.98326398,0.0003215,69.9989,214.4218,269.5339,90.5451,-1.7399e-05,-3.01e-06,0.0,0 STARLINK-5306,1 55271U 23010C   24161.19994162 -.00000301  00000-0 -17399-4 0  9990,2 55271  69.9989 214.4218 0003215 269.5339  90.5451 14.98326398 76833,6950.204,96.107,574.304,569.835,0.0
55271.0,STARLINK-5306,PAYLOAD,2024-06-09 11:12:27,14.9832324,0.0002943,69.9999,213.75,265.1558,94.9265,-3.9698e-06,-1.4e-06,0.0,0 STARLINK-5306,1 55271U 23010C   24161.46698389 -.00000140  00000-0 -39698-5 0  9990,2 55271  69.9999 213.7500 0002943 265.1558  94.9265 14.98323240 77185,6950.214,96.107,574.124,570.033,0.0
55271.0,STARLINK-5306,PAYLOAD,2024-06-09 20:49:15,14.98330807,0.0003303,69.9988,212.7379,271.4319,88.6462,-2.0125e-06,-1.17e-06,0.0,0 STARLINK-5306,1 55271U 23010C   24161.86753894 -.00000117  00000-0 -20125-5 0  9996,2 55271  69.9988 212.7379 0003303 271.4319  88.6462 14.98330807 77245,6950.19,96.107,574.351,569.76,0.0
55271.0,STARLINK-5306,PAYLOAD,2024-06-10 04:49:55,14.98331208,0.0003308,69.9986,211.8961,270.3784,89.6996,4.1035e-05,3.97e-06,0.0,0 STARLINK-5306,1 55271U 23010C   24162.20133772  .00000397  00000-0  41035-4 0  9992,2 55271  69.9986 211.8961 0003308 270.3784  89.6996 14.98331208 76988,6950.189,96.107,574.353,569.755,0.0
55271.0,STARLINK-5306,PAYLOAD,2024-06-10 12:50:35,14.98334128,0.0003242,69.9986,211.0547,266.0405,94.0384,5.1167e-05,5.18e-06,0.0,0 STARLINK-5306,1 55271U 23010C   24162.53513547  .00000518  00000-0  51167-4 0  9992,2 55271  69.9986 211.0547 0003242 266.0405  94.0384 14.98334128 77345,6950.18,96.107,574.298,569.792,0.0
55271.0,STARLINK-5306,PAYLOAD,2024-06-10 20:51:16,14.98331565,0.000323,69.9988,210.2127,269.4868,90.592,3.0179e-05,2.67e-06,0.0,0 STARLINK-5306,1 55271U 23010C   24162.86893730  .00000267  00000-0  30179-4 0  9994,2 55271  69.9988 210.2127 0003230 269.4868  90.5920 14.98331565 77393,6950.188,96.107,574.298,569.808,0.0
55271.0,STARLINK-5306,PAYLOAD,2024-06-11 04:51:56,14.98326745,0.0003263,69.9986,209.3716,269.289,90.7895,0.00015761,1.788e-05,0.0,0 STARLINK-5306,1 55271U 23010C   24163.20273828  .00001788  00000-0  15761-3 0  9991,2 55271  69.9986 209.3716 0003263 269.2890  90.7895 14.98326745 77132,6950.203,96.107,574.336,569.8,0.0
55271.0,STARLINK-5306,PAYLOAD,2024-06-11 12:52:36,14.98331052,0.0003297,69.9986,208.5296,268.3661,91.712,0.00016227,1.844e-05,0.0,0 STARLINK-5306,1 55271U 23010C   24163.53653652  .00001844  00000-0  16227-3 0  9995,2 55271  69.9986 208.5296 0003297 268.3661  91.7120 14.98331052 77497,6950.19,96.107,574.346,569.763,0.0
55271.0,STARLINK-5306,PAYLOAD,2024-06-12 06:30:05,14.98329676,0.0003274,69.9987,206.6781,268.2568,91.8216,7.99e-05,8.6e-06,0.0,0 STARLINK-5306,1 55271U 23010C   24164.27089908  .00000860  00000-0  79900-4 0  9999,2 55271  69.9987 206.6781 0003274 268.2568  91.8216 14.98329676 77290,6950.194,96.107,574.334,569.783,0.0
55271.0,STARLINK-5306,PAYLOAD,2024-06-12 12:54:37,14.9833157,0.0003277,69.9987,206.005,268.3699,91.7085,5.7566e-05,5.94e-06,0.0,0 STARLINK-5306,1 55271U 23010C   24164.53793758  .00000594  00000-0  57566-4 0  9991,2 55271  69.9987 206.0050 0003277 268.3699  91.7085 14.98331570 77640,6950.188,96.107,574.331,569.775,0.0
55271.0,STARLINK-5306,PAYLOAD,2024-06-13 12:56:38,14.98331598,0.000325,69.9988,203.4809,267.2309,92.8478,3.1624e-05,2.84e-06,0.0,0 STARLINK-5306,1 55271U 23010C   24165.53933701  .00000284  00000-0  31624-4 0  9999,2 55271  69.9988 203.4809 0003250 267.2309  92.8478 14.98331598 77481,6950.188,96.107,574.312,569.794,0.0
55271.0,STARLINK-5306,PAYLOAD,2024-06-13 19:21:10,14.98330798,0.0003251,69.9988,202.8074,267.8797,92.199,3.938e-05,3.77e-06,0.0,0 STARLINK-5306,1 55271U 23010C   24165.80637711  .00000377  00000-0  39380-4 0  9991,2 55271  69.9988 202.8074 0003251 267.8797  92.1990 14.98330798 77838,6950.19,96.107,574.315,569.796,0.0
55271.0,STARLINK-5306,PAYLOAD,2024-06-14 11:22:31,14.983309,0.0003305,69.9986,201.124,268.0597,92.0183,5.1145e-05,5.17e-06,0.0,0 STARLINK-5306,1 55271U 23010C   24166.47397651  .00000517  00000-0  51145-4 0  9990,2 55271  69.9986 201.1240 0003305 268.0597  92.0183 14.98330900 77933,6950.19,96.107,574.352,569.758,0.0
55271.0,STARLINK-5306,PAYLOAD,2024-06-14 19:23:11,14.98332184,0.000331,69.9986,200.2823,268.1663,91.9117,5.0109e-05,5.05e-06,0.0,0 STARLINK-5306,1 55271U 23010C   24166.80777541  .00000505  00000-0  50109-4 0  9993,2 55271  69.9986 200.2823 0003310 268.1663  91.9117 14.98332184 77987,6950.186,96.107,574.352,569.751,0.0
55271.0,STARLINK-5306,PAYLOAD,2024-06-15 11:24:32,14.98333159,0.0003327,69.9985,198.599,267.7758,92.302,6.3069e-05,6.6e-06,0.0,0 STARLINK-5306,1 55271U 23010C   24167.47537382  .00000660  00000-0  63069-4 0  9995,2 55271  69.9985 198.5990 0003327 267.7758  92.3020 14.98333159 78081,6950.183,96.107,574.36,569.736,0.0
55271.0,STARLINK-5306,PAYLOAD,2024-06-15 19:25:12,14.98332732,0.0003362,69.9984,197.7574,268.7936,91.2838,5.2452e-05,5.33e-06,0.0,0 STARLINK-5306,1 55271U 23010C   24167.80917372  .00000533  00000-0  52452-4 0  9996,2 55271  69.9984 197.7574 0003362 268.7936  91.2838 14.98332732 78134,6950.184,96.107,574.386,569.713,0.0
55271.0,STARLINK-5306,PAYLOAD,2024-06-16 11:26:33,14.98331452,0.0003364,69.9983,196.0742,268.8303,91.2471,4.1884e-05,4.07e-06,0.0,0 STARLINK-5306,1 55271U 23010C   24168.47677459  .00000407  00000-0  41884-4 0  9996,2 55271  69.9983 196.0742 0003364 268.8303  91.2471 14.98331452 78235,6950.188,96.107,574.391,569.715,0.0
55271.0,STARLINK-5306,PAYLOAD,2024-06-16 19:27:13,14.98330565,0.0003398,69.9981,195.2321,269.0489,91.0281,2.0649e-05,1.53e-06,0.0,0 STARLINK-5306,1 55271U 23010C   24168.81057533  .00000153  00000-0  20649-4 0  9993,2 55271  69.9981 195.2321 0003398 269.0489  91.0281 14.98330565 78288,6950.191,96.107,574.418,569.694,0.0
